<?xml version="1.0" encoding="UTF-8"?>
<ndm xmlns:xsi="http://www.w3.org/2001/XMLSchema-instance" xsi:noNamespaceSchemaLocation="https://sanaregistry.org/r/ndmxml_unqualified/ndmxml-2.0.0-master-2.0.xsd">
<omm id="CCSDS_OMM_VERS" version="2.0">
<header><CREATION_DATE/><ORIGINATOR/></header><body><segment><metadata><OBJECT_NAME>ONEWEB-0049</OBJECT_NAME><OBJECT_ID>2020-008Z</OBJECT_ID><CENTER_NAME>EARTH</CENTER_NAME><REF_FRAME>TEME</REF_FRAME><TIME_SYSTEM>UTC</TIME_SYSTEM><MEAN_ELEMENT_THEORY>SGP4</MEAN_ELEMENT_THEORY></metadata><data><meanElements><EPOCH>2024-10-06T15:36:05.543424</EPOCH><MEAN_MOTION>13.10374733</MEAN_MOTION><ECCENTRICITY>.0001287</ECCENTRICITY><INCLINATION>87.8967</INCLINATION><RA_OF_ASC_NODE>159.3952</RA_OF_ASC_NODE><ARG_OF_PERICENTER>56.3586</ARG_OF_PERICENTER><MEAN_ANOMALY>303.7664</MEAN_ANOMALY></meanElements><tleParameters><EPHEMERIS_TYPE>0</EPHEMERIS_TYPE><CLASSIFICATION_TYPE>U</CLASSIFICATION_TYPE><NORAD_CAT_ID>45154</NORAD_CAT_ID><ELEMENT_SET_NO>999</ELEMENT_SET_NO><REV_AT_EPOCH>22702</REV_AT_EPOCH><BSTAR>.13661E-2</BSTAR><MEAN_MOTION_DOT>.49E-5</MEAN_MOTION_DOT><MEAN_MOTION_DDOT>0</MEAN_MOTION_DDOT></tleParameters></data></segment></body></omm>
<omm id="CCSDS_OMM_VERS" version="2.0">
<header><CREATION_DATE/><ORIGINATOR/></header><body><segment><metadata><OBJECT_NAME>ONEWEB-0051</OBJECT_NAME><OBJECT_ID>2020-008AA</OBJECT_ID><CENTER_NAME>EARTH</CENTER_NAME><REF_FRAME>TEME</REF_FRAME><TIME_SYSTEM>UTC</TIME_SYSTEM><MEAN_ELEMENT_THEORY>SGP4</MEAN_ELEMENT_THEORY></metadata><data><meanElements><EPOCH>2024-10-06T20:28:13.427616</EPOCH><MEAN_MOTION>13.11416709</MEAN_MOTION><ECCENTRICITY>.0001763</ECCENTRICITY><INCLINATION>87.8935</INCLINATION><RA_OF_ASC_NODE>144.2495</RA_OF_ASC_NODE><ARG_OF_PERICENTER>74.7442</ARG_OF_PERICENTER><MEAN_ANOMALY>285.3881</MEAN_ANOMALY></meanElements><tleParameters><EPHEMERIS_TYPE>0</EPHEMERIS_TYPE><CLASSIFICATION_TYPE>U</CLASSIFICATION_TYPE><NORAD_CAT_ID>45155</NORAD_CAT_ID><ELEMENT_SET_NO>999</ELEMENT_SET_NO><REV_AT_EPOCH>23004</REV_AT_EPOCH><BSTAR>.14835E-2</BSTAR><MEAN_MOTION_DOT>.538E-5</MEAN_MOTION_DOT><MEAN_MOTION_DDOT>0</MEAN_MOTION_DDOT></tleParameters></data></segment></body></omm>
<omm id="CCSDS_OMM_VERS" version="2.0">
<header><CREATION_DATE/><ORIGINATOR/></header><body><segment><metadata><OBJECT_NAME>ONEWEB-0052</OBJECT_NAME><OBJECT_ID>2020-008AB</OBJECT_ID><CENTER_NAME>EARTH</CENTER_NAME><REF_FRAME>TEME</REF_FRAME><TIME_SYSTEM>UTC</TIME_SYSTEM><MEAN_ELEMENT_THEORY>SGP4</MEAN_ELEMENT_THEORY></metadata><data><meanElements><EPOCH>2024-10-06T15:31:18.444000</EPOCH><MEAN_MOTION>13.10374481</MEAN_MOTION><ECCENTRICITY>.0001177</ECCENTRICITY><INCLINATION>87.8959</INCLINATION><RA_OF_ASC_NODE>159.3590</RA_OF_ASC_NODE><ARG_OF_PERICENTER>61.0940</ARG_OF_PERICENTER><MEAN_ANOMALY>299.0305</MEAN_ANOMALY></meanElements><tleParameters><EPHEMERIS_TYPE>0</EPHEMERIS_TYPE><CLASSIFICATION_TYPE>U</CLASSIFICATION_TYPE><NORAD_CAT_ID>45156</NORAD_CAT_ID><ELEMENT_SET_NO>999</ELEMENT_SET_NO><REV_AT_EPOCH>22693</REV_AT_EPOCH><BSTAR>.71067E-3</BSTAR><MEAN_MOTION_DOT>.261E-5</MEAN_MOTION_DOT><MEAN_MOTION_DDOT>0</MEAN_MOTION_DDOT></tleParameters></data></segment></body></omm>
<omm id="CCSDS_OMM_VERS" version="2.0">
<header><CREATION_DATE/><ORIGINATOR/></header><body><segment><metadata><OBJECT_NAME>ONEWEB-0053</OBJECT_NAME><OBJECT_ID>2020-008AC</OBJECT_ID><CENTER_NAME>EARTH</CENTER_NAME><REF_FRAME>TEME</REF_FRAME><TIME_SYSTEM>UTC</TIME_SYSTEM><MEAN_ELEMENT_THEORY>SGP4</MEAN_ELEMENT_THEORY></metadata><data><meanElements><EPOCH>2024-10-06T15:04:59.598912</EPOCH><MEAN_MOTION>13.10375467</MEAN_MOTION><ECCENTRICITY>.0001508</ECCENTRICITY><INCLINATION>87.8962</INCLINATION><RA_OF_ASC_NODE>159.4174</RA_OF_ASC_NODE><ARG_OF_PERICENTER>87.3551</ARG_OF_PERICENTER><MEAN_ANOMALY>272.7749</MEAN_ANOMALY></meanElements><tleParameters><EPHEMERIS_TYPE>0</EPHEMERIS_TYPE><CLASSIFICATION_TYPE>U</CLASSIFICATION_TYPE><NORAD_CAT_ID>45157</NORAD_CAT_ID><ELEMENT_SET_NO>999</ELEMENT_SET_NO><REV_AT_EPOCH>22690</REV_AT_EPOCH><BSTAR>-.13783E-2</BSTAR><MEAN_MOTION_DOT>-.468E-5</MEAN_MOTION_DOT><MEAN_MOTION_DDOT>0</MEAN_MOTION_DDOT></tleParameters></data></segment></body></omm>
<omm id="CCSDS_OMM_VERS" version="2.0">
<header><CREATION_DATE/><ORIGINATOR/></header><body><segment><metadata><OBJECT_NAME>ONEWEB-0054</OBJECT_NAME><OBJECT_ID>2020-008AD</OBJECT_ID><CENTER_NAME>EARTH</CENTER_NAME><REF_FRAME>TEME</REF_FRAME><TIME_SYSTEM>UTC</TIME_SYSTEM><MEAN_ELEMENT_THEORY>SGP4</MEAN_ELEMENT_THEORY></metadata><data><meanElements><EPOCH>2024-10-06T21:25:04.687104</EPOCH><MEAN_MOTION>13.10371533</MEAN_MOTION><ECCENTRICITY>.0001644</ECCENTRICITY><INCLINATION>87.8956</INCLINATION><RA_OF_ASC_NODE>159.3451</RA_OF_ASC_NODE><ARG_OF_PERICENTER>72.3102</ARG_OF_PERICENTER><MEAN_ANOMALY>287.8205</MEAN_ANOMALY></meanElements><tleParameters><EPHEMERIS_TYPE>0</EPHEMERIS_TYPE><CLASSIFICATION_TYPE>U</CLASSIFICATION_TYPE><NORAD_CAT_ID>45158</NORAD_CAT_ID><ELEMENT_SET_NO>999</ELEMENT_SET_NO><REV_AT_EPOCH>22705</REV_AT_EPOCH><BSTAR>.20712E-2</BSTAR><MEAN_MOTION_DOT>.736E-5</MEAN_MOTION_DOT><MEAN_MOTION_DDOT>0</MEAN_MOTION_DDOT></tleParameters></data></segment></body></omm>
<omm id="CCSDS_OMM_VERS" version="2.0">
<header><CREATION_DATE/><ORIGINATOR/></header><body><segment><metadata><OBJECT_NAME>ONEWEB-0056</OBJECT_NAME><OBJECT_ID>2020-008AE</OBJECT_ID><CENTER_NAME>EARTH</CENTER_NAME><REF_FRAME>TEME</REF_FRAME><TIME_SYSTEM>UTC</TIME_SYSTEM><MEAN_ELEMENT_THEORY>SGP4</MEAN_ELEMENT_THEORY></metadata><data><meanElements><EPOCH>2024-10-06T15:28:54.735744</EPOCH><MEAN_MOTION>13.10375889</MEAN_MOTION><ECCENTRICITY>.0001427</ECCENTRICITY><INCLINATION>87.8960</INCLINATION><RA_OF_ASC_NODE>159.3901</RA_OF_ASC_NODE><ARG_OF_PERICENTER>74.8002</ARG_OF_PERICENTER><MEAN_ANOMALY>285.3283</MEAN_ANOMALY></meanElements><tleParameters><EPHEMERIS_TYPE>0</EPHEMERIS_TYPE><CLASSIFICATION_TYPE>U</CLASSIFICATION_TYPE><NORAD_CAT_ID>45159</NORAD_CAT_ID><ELEMENT_SET_NO>999</ELEMENT_SET_NO><REV_AT_EPOCH>22717</REV_AT_EPOCH><BSTAR>.78195E-3</BSTAR><MEAN_MOTION_DOT>.286E-5</MEAN_MOTION_DOT><MEAN_MOTION_DDOT>0</MEAN_MOTION_DDOT></tleParameters></data></segment></body></omm>
<omm id="CCSDS_OMM_VERS" version="2.0">
<header><CREATION_DATE/><ORIGINATOR/></header><body><segment><metadata><OBJECT_NAME>ONEWEB-0057</OBJECT_NAME><OBJECT_ID>2020-008AF</OBJECT_ID><CENTER_NAME>EARTH</CENTER_NAME><REF_FRAME>TEME</REF_FRAME><TIME_SYSTEM>UTC</TIME_SYSTEM><MEAN_ELEMENT_THEORY>SGP4</MEAN_ELEMENT_THEORY></metadata><data><meanElements><EPOCH>2024-10-06T15:38:29.014944</EPOCH><MEAN_MOTION>13.10374668</MEAN_MOTION><ECCENTRICITY>.0001557</ECCENTRICITY><INCLINATION>87.8963</INCLINATION><RA_OF_ASC_NODE>159.3934</RA_OF_ASC_NODE><ARG_OF_PERICENTER>76.5579</ARG_OF_PERICENTER><MEAN_ANOMALY>283.5721</MEAN_ANOMALY></meanElements><tleParameters><EPHEMERIS_TYPE>0</EPHEMERIS_TYPE><CLASSIFICATION_TYPE>U</CLASSIFICATION_TYPE><NORAD_CAT_ID>45160</NORAD_CAT_ID><ELEMENT_SET_NO>999</ELEMENT_SET_NO><REV_AT_EPOCH>22734</REV_AT_EPOCH><BSTAR>.16182E-2</BSTAR><MEAN_MOTION_DOT>.578E-5</MEAN_MOTION_DOT><MEAN_MOTION_DDOT>0</MEAN_MOTION_DDOT></tleParameters></data></segment></body></omm>
<omm id="CCSDS_OMM_VERS" version="2.0">
<header><CREATION_DATE/><ORIGINATOR/></header><body><segment><metadata><OBJECT_NAME>ONEWEB-0058</OBJECT_NAME><OBJECT_ID>2020-008AG</OBJECT_ID><CENTER_NAME>EARTH</CENTER_NAME><REF_FRAME>TEME</REF_FRAME><TIME_SYSTEM>UTC</TIME_SYSTEM><MEAN_ELEMENT_THEORY>SGP4</MEAN_ELEMENT_THEORY></metadata><data><meanElements><EPOCH>2024-10-06T15:19:33.181536</EPOCH><MEAN_MOTION>13.10374862</MEAN_MOTION><ECCENTRICITY>.0001701</ECCENTRICITY><INCLINATION>87.8959</INCLINATION><RA_OF_ASC_NODE>159.4245</RA_OF_ASC_NODE><ARG_OF_PERICENTER>77.9194</ARG_OF_PERICENTER><MEAN_ANOMALY>282.2124</MEAN_ANOMALY></meanElements><tleParameters><EPHEMERIS_TYPE>0</EPHEMERIS_TYPE><CLASSIFICATION_TYPE>U</CLASSIFICATION_TYPE><NORAD_CAT_ID>45161</NORAD_CAT_ID><ELEMENT_SET_NO>999</ELEMENT_SET_NO><REV_AT_EPOCH>22741</REV_AT_EPOCH><BSTAR>-.19348E-3</BSTAR><MEAN_MOTION_DOT>-.55E-6</MEAN_MOTION_DOT><MEAN_MOTION_DDOT>0</MEAN_MOTION_DDOT></tleParameters></data></segment></body></omm>
<omm id="CCSDS_OMM_VERS" version="2.0">
<header><CREATION_DATE/><ORIGINATOR/></header><body><segment><metadata><OBJECT_NAME>ONEWEB-0059</OBJECT_NAME><OBJECT_ID>2020-008AH</OBJECT_ID><CENTER_NAME>EARTH</CENTER_NAME><REF_FRAME>TEME</REF_FRAME><TIME_SYSTEM>UTC</TIME_SYSTEM><MEAN_ELEMENT_THEORY>SGP4</MEAN_ELEMENT_THEORY></metadata><data><meanElements><EPOCH>2024-10-06T15:14:33.751104</EPOCH><MEAN_MOTION>13.10376111</MEAN_MOTION><ECCENTRICITY>.0001749</ECCENTRICITY><INCLINATION>87.8964</INCLINATION><RA_OF_ASC_NODE>159.4101</RA_OF_ASC_NODE><ARG_OF_PERICENTER>75.9274</ARG_OF_PERICENTER><MEAN_ANOMALY>284.2047</MEAN_ANOMALY></meanElements><tleParameters><EPHEMERIS_TYPE>0</EPHEMERIS_TYPE><CLASSIFICATION_TYPE>U</CLASSIFICATION_TYPE><NORAD_CAT_ID>45162</NORAD_CAT_ID><ELEMENT_SET_NO>999</ELEMENT_SET_NO><REV_AT_EPOCH>22731</REV_AT_EPOCH><BSTAR>-.85056E-3</BSTAR><MEAN_MOTION_DOT>-.284E-5</MEAN_MOTION_DOT><MEAN_MOTION_DDOT>0</MEAN_MOTION_DDOT></tleParameters></data></segment></body></omm>

</ndm>
